{"type": "FeatureCollection", "features": [ {"type": "Feature", "properties": {"norad_id": 34736, "name": "COSMOS 2251 DEB", "group": "cosmos-2251-debris", "lat": -65.54463233904669, "lon": -6.994832878302363, "alt_km": 418.2956694375516, "timestamp": "2025-12-14T14:39:29.764124+00:00", "meta": {"OBJECT_NAME": "COSMOS 2251 DEB", "OBJECT_ID": "1993-036ZE", "EPOCH": "2025-12-13T15:42:48.765312", "MEAN_MOTION": 15.48601194, "ECCENTRICITY": 0.00172876, "INCLINATION": 74.0007, "RA_OF_ASC_NODE": 34.2216, "ARG_OF_PERICENTER": 344.947, "MEAN_ANOMALY": 15.1225, "EPHEMERIS_TYPE": 0, "CLASSIFICATION_TYPE": "U", "NORAD_CAT_ID": 34736, "ELEMENT_SET_NO": 999, "REV_AT_EPOCH": 88462, "BSTAR": 0.007818737, "MEAN_MOTION_DOT": 0.00443924, "MEAN_MOTION_DDOT": 0}, "tle": {"line1": "1 34736U 93036ZE  25347.65473108  .00443924  00000+0  78187-2 0  9997", "line2": "2 34736  74.0007  34.2216 0017287 344.9470  15.1225 15.48601194884620"}}, "geometry": {"type": "Point", "coordinates": [-6.994832878302363, -65.54463233904669]}}, {"type": "Feature", "properties": {"norad_id": 34738, "name": "COSMOS 2251 DEB", "group": "cosmos-2251-debris", "lat": -43.342937000726984, "lon": -24.534278709504854, "alt_km": 727.1310046237004, "timestamp": "2025-12-14T14:39:29.764134+00:00", "meta": {"OBJECT_NAME": "COSMOS 2251 DEB", "OBJECT_ID": "1993-036ZG", "EPOCH": "2025-12-13T21:36:08.072352", "MEAN_MOTION": 14.46305602, "ECCENTRICITY": 0.00474134, "INCLINATION": 74.0145, "RA_OF_ASC_NODE": 141.0972, "ARG_OF_PERICENTER": 287.1439, "MEAN_ANOMALY": 200.0647, "EPHEMERIS_TYPE": 0, "CLASSIFICATION_TYPE": "U", "NORAD_CAT_ID": 34738, "ELEMENT_SET_NO": 999, "REV_AT_EPOCH": 87875, "BSTAR": 0.00045207988, "MEAN_MOTION_DOT": 1.615e-05, "MEAN_MOTION_DDOT": 0}, "tle": {"line1": "1 34738U 93036ZG  25347.90009343  .00001615  00000+0  45208-3 0  9999", "line2": "2 34738  74.0145 141.0972 0047413 287.1439 200.0647 14.46305602878750"}}, "geometry": {"type": "Point", "coordinates": [-24.534278709504854, -43.342937000726984]}}, {"type": "Feature", "properties": {"norad_id": 34750, "name": "COSMOS 2251 DEB", "group": "cosmos-2251-debris", "lat": 52.26424666613187, "lon": -3.41076448713823, "alt_km": 658.975837924706, "timestamp": "2025-12-14T14:39:29.764144+00:00", "meta": {"OBJECT_NAME": "COSMOS 2251 DEB", "OBJECT_ID": "1993-036ZU", "EPOCH": "2025-12-13T18:57:09.038880", "MEAN_MOTION": 14.61338013, "ECCENTRICITY": 0.00387814, "INCLINATION": 74.1082, "RA_OF_ASC_NODE": 199.7522, "ARG_OF_PERICENTER": 152.5192, "MEAN_ANOMALY": 334.5549, "EPHEMERIS_TYPE": 0, "CLASSIFICATION_TYPE": "U", "NORAD_CAT_ID": 34750, "ELEMENT_SET_NO": 999, "REV_AT_EPOCH": 88246, "BSTAR": 0.0012580703, "MEAN_MOTION_DOT": 6.259e-05, "MEAN_MOTION_DDOT": 0}, "tle": {"line1": "1 34750U 93036ZU  25347.78968795  .00006259  00000+0  12581-2 0  9990", "line2": "2 34750  74.1082 199.7522 0038781 152.5192 334.5549 14.61338013882461"}}, "geometry": {"type": "Point", "coordinates": [-3.41076448713823, 52.26424666613187]}}, {"type": "Feature", "properties": {"norad_id": 34752, "name": "COSMOS 2251 DEB", "group": "cosmos-2251-debris", "lat": 13.26163288348745, "lon": 172.92394940092714, "alt_km": 542.7410330829462, "timestamp": "2025-12-14T14:39:29.764153+00:00", "meta": {"OBJECT_NAME": "COSMOS 2251 DEB", "OBJECT_ID": "1993-036ZW", "EPOCH": "2025-12-13T10:42:42.914592", "MEAN_MOTION": 14.99957131, "ECCENTRICITY": 0.00477018, "INCLINATION": 74.0136, "RA_OF_ASC_NODE": 359.1669, "ARG_OF_PERICENTER": 127.4592, "MEAN_ANOMALY": 233.0949, "EPHEMERIS_TYPE": 0, "CLASSIFICATION_TYPE": "U", "NORAD_CAT_ID": 34752, "ELEMENT_SET_NO": 999, "REV_AT_EPOCH": 89860, "BSTAR": 0.0015253776, "MEAN_MOTION_DOT": 0.00019425, "MEAN_MOTION_DDOT": 0}, "tle": {"line1": "1 34752U 93036ZW  25347.44633003  .00019425  00000+0  15254-2 0  9995", "line2": "2 34752  74.0136 359.1669 0047701 127.4592 233.0949 14.99957131898602"}}, "geometry": {"type": "Point", "coordinates": [172.92394940092714, 13.26163288348745]}}, {"type": "Feature", "properties": {"norad_id": 34754, "name": "COSMOS 2251 DEB", "group": "cosmos-2251-debris", "lat": 71.42801170831171, "lon": -14.319891801003513, "alt_km": 760.0916529784708, "timestamp": "2025-12-14T14:39:29.764163+00:00", "meta": {"OBJECT_NAME": "COSMOS 2251 DEB", "OBJECT_ID": "1993-036ZY", "EPOCH": "2025-12-13T18:31:07.827168", "MEAN_MOTION": 14.4048345, "ECCENTRICITY": 0.00296021, "INCLINATION": 74.03, "RA_OF_ASC_NODE": 225.6938, "ARG_OF_PERICENTER": 341.5652, "MEAN_ANOMALY": 87.89, "EPHEMERIS_TYPE": 0, "CLASSIFICATION_TYPE": "U", "NORAD_CAT_ID": 34754, "ELEMENT_SET_NO": 999, "REV_AT_EPOCH": 88148, "BSTAR": 0.00028866759, "MEAN_MOTION_DOT": 8.96e-06, "MEAN_MOTION_DDOT": 0}, "tle": {"line1": "1 34754U 93036ZY  25347.77161837  .00000896  00000+0  28867-3 0  9991", "line2": "2 34754  74.0300 225.6938 0029602 341.5652  87.8900 14.40483450881483"}}, "geometry": {"type": "Point", "coordinates": [-14.319891801003513, 71.42801170831171]}}, {"type": "Feature", "properties": {"norad_id": 34755, "name": "COSMOS 2251 DEB", "group": "cosmos-2251-debris", "lat": -34.62525444981666, "lon": -84.46488120947066, "alt_km": 784.6202819592881, "timestamp": "2025-12-14T14:39:29.764174+00:00", "meta": {"OBJECT_NAME": "COSMOS 2251 DEB", "OBJECT_ID": "1993-036ZZ", "EPOCH": "2025-12-13T03:21:12.314304", "MEAN_MOTION": 13.50561141, "ECCENTRICITY": 0.04082739, "INCLINATION": 73.9258, "RA_OF_ASC_NODE": 289.3819, "ARG_OF_PERICENTER": 309.135, "MEAN_ANOMALY": 63.7698, "EPHEMERIS_TYPE": 0, "CLASSIFICATION_TYPE": "U", "NORAD_CAT_ID": 34755, "ELEMENT_SET_NO": 999, "REV_AT_EPOCH": 82529, "BSTAR": 0.0020583927, "MEAN_MOTION_DOT": 2.198e-05, "MEAN_MOTION_DDOT": 0}, "tle": {"line1": "1 34755U 93036ZZ  25347.13972586  .00002198  00000+0  20584-2 0  9997", "line2": "2 34755  73.9258 289.3819 0408273 309.1350  63.7698 13.50561141825297"}}, "geometry": {"type": "Point", "coordinates": [-84.46488120947066, -34.62525444981666]}}, {"type": "Feature", "properties": {"norad_id": 34756, "name": "COSMOS 2251 DEB", "group": "cosmos-2251-debris", "lat": -18.288039684674086, "lon": 95.85299780311627, "alt_km": 759.7561102401942, "timestamp": "2025-12-14T14:39:29.764184+00:00", "meta": {"OBJECT_NAME": "COSMOS 2251 DEB", "OBJECT_ID": "1993-036AAA", "EPOCH": "2025-12-13T14:09:41.564160", "MEAN_MOTION": 13.6724515, "ECCENTRICITY": 0.0345102, "INCLINATION": 74.0027, "RA_OF_ASC_NODE": 102.9711, "ARG_OF_PERICENTER": 338.5993, "MEAN_ANOMALY": 20.0978, "EPHEMERIS_TYPE": 0, "CLASSIFICATION_TYPE": "U", "NORAD_CAT_ID": 34756, "ELEMENT_SET_NO": 999, "REV_AT_EPOCH": 83433, "BSTAR": 0.0012429272, "MEAN_MOTION_DOT": 1.552e-05, "MEAN_MOTION_DDOT": 0}, "tle": {"line1": "1 34756U 93036AAA 25347.59006440  .00001552  00000+0  12429-2 0  9997", "line2": "2 34756  74.0027 102.9711 0345102 338.5993  20.0978 13.67245150834334"}}, "geometry": {"type": "Point", "coordinates": [95.85299780311627, -18.288039684674086]}}, {"type": "Feature", "properties": {"norad_id": 34758, "name": "COSMOS 2251 DEB", "group": "cosmos-2251-debris", "lat": 28.063641258349836, "lon": -54.77761715133017, "alt_km": 794.2187556503613, "timestamp": "2025-12-14T14:39:29.764195+00:00", "meta": {"OBJECT_NAME": "COSMOS 2251 DEB", "OBJECT_ID": "1993-036AAC", "EPOCH": "2025-12-13T13:46:20.391168", "MEAN_MOTION": 13.5807199, "ECCENTRICITY": 0.03813302, "INCLINATION": 74.1077, "RA_OF_ASC_NODE": 298.1546, "ARG_OF_PERICENTER": 61.6726, "MEAN_ANOMALY": 302.2296, "EPHEMERIS_TYPE": 0, "CLASSIFICATION_TYPE": "U", "NORAD_CAT_ID": 34758, "ELEMENT_SET_NO": 999, "REV_AT_EPOCH": 82921, "BSTAR": 0.0018611254, "MEAN_MOTION_DOT": 2.146e-05, "MEAN_MOTION_DDOT": 0}, "tle": {"line1": "1 34758U 93036AAC 25347.57384712  .00002146  00000+0  18611-2 0  9997", "line2": "2 34758  74.1077 298.1546 0381330  61.6726 302.2296 13.58071990829215"}}, "geometry": {"type": "Point", "coordinates": [-54.77761715133017, 28.063641258349836]}}, {"type": "Feature", "properties": {"norad_id": 34760, "name": "COSMOS 2251 DEB", "group": "cosmos-2251-debris", "lat": -23.7123561274231, "lon": -68.18839604761358, "alt_km": 764.5573781601488, "timestamp": "2025-12-14T14:39:29.764205+00:00", "meta": {"OBJECT_NAME": "COSMOS 2251 DEB", "OBJECT_ID": "1993-036AAE", "EPOCH": "2025-12-13T20:17:44.198880", "MEAN_MOTION": 14.19574474, "ECCENTRICITY": 0.00968203, "INCLINATION": 74.0637, "RA_OF_ASC_NODE": 300.3859, "ARG_OF_PERICENTER": 352.2673, "MEAN_ANOMALY": 34.8825, "EPHEMERIS_TYPE": 0, "CLASSIFICATION_TYPE": "U", "NORAD_CAT_ID": 34760, "ELEMENT_SET_NO": 999, "REV_AT_EPOCH": 86704, "BSTAR": 0.0010170256, "MEAN_MOTION_DOT": 2.224e-05, "MEAN_MOTION_DDOT": 0}, "tle": {"line1": "1 34760U 93036AAE 25347.84565045  .00002224  00000+0  10170-2 0  9999", "line2": "2 34760  74.0637 300.3859 0096820 352.2673  34.8825 14.19574474867041"}}, "geometry": {"type": "Point", "coordinates": [-68.18839604761358, -23.7123561274231]}}, {"type": "Feature", "properties": {"norad_id": 34761, "name": "COSMOS 2251 DEB", "group": "cosmos-2251-debris", "lat": 19.032724597597387, "lon": 5.013646069428541, "alt_km": 739.3877750891797, "timestamp": "2025-12-14T14:39:29.764215+00:00", "meta": {"OBJECT_NAME": "COSMOS 2251 DEB", "OBJECT_ID": "1993-036AAF", "EPOCH": "2025-12-13T18:31:54.871968", "MEAN_MOTION": 14.38053878, "ECCENTRICITY": 0.0036454, "INCLINATION": 74.0297, "RA_OF_ASC_NODE": 0.8889, "ARG_OF_PERICENTER": 34.6741, "MEAN_ANOMALY": 325.6778, "EPHEMERIS_TYPE": 0, "CLASSIFICATION_TYPE": "U", "NORAD_CAT_ID": 34761, "ELEMENT_SET_NO": 999, "REV_AT_EPOCH": 87664, "BSTAR": 0.00079182596, "MEAN_MOTION_DOT": 2.391e-05, "MEAN_MOTION_DDOT": 0}, "tle": {"line1": "1 34761U 93036AAF 25347.77216287  .00002391  00000+0  79183-3 0  9998", "line2": "2 34761  74.0297   0.8889 0036454  34.6741 325.6778 14.38053878876648"}}, "geometry": {"type": "Point", "coordinates": [5.013646069428541, 19.032724597597387]}}]}